ONEWEB-0645             
1 55809U 23029P   25330.60896126  .00000086  00000+0  18133-3 0  9996
2 55809  87.9193 345.2998 0002331  93.2861 266.8539 13.19711812132182
ONEWEB-0646             
1 55810U 23029Q   25330.55054529  .00000071  00000+0  14527-3 0  9992
2 55810  87.9199 345.3014 0002040  85.9332 274.2034 13.19726457132160
ONEWEB-0648             
1 55811U 23029R   25330.56296487 -.00000151  00000+0 -44194-3 0  9999
2 55811  87.8986 330.0726 0002799  87.8881 272.2570 13.14502833132771
ONEWEB-0649             
1 55812U 23029S   25330.49996974 -.00000130  00000+0 -35824-3 0  9997
2 55812  87.9204 345.3073 0002263  89.8381 270.3011 13.19727235132198
ONEWEB-0650             
1 55813U 23029T   25330.49524248  .00000046  00000+0  81658-4 0  9990
2 55813  87.9197 345.3155 0002281  86.0232 274.1162 13.19727759132162
ONEWEB-0652             
1 55814U 23029U   25330.54393143  .00000207  00000+0  52422-3 0  9990
2 55814  87.8983 330.0973 0001605  90.2069 269.9244 13.14502146132741
ONEWEB-0653             
1 55815U 23029V   25330.52807848  .00000169  00000+0  42184-3 0  9992
2 55815  87.8981 330.0901 0001762  94.7926 265.3405 13.14502586132776
ONEWEB-0654             
1 55816U 23029W   25330.52331653  .00000201  00000+0  50688-3 0  9994
2 55816  87.8980 330.0902 0001477  96.0779 264.0519 13.14502749132796
